NORAD_CAT_ID,OBJECT_NAME,OBJECT_TYPE,EPOCH,MEAN_MOTION,ECCENTRICITY,INCLINATION,RA_OF_ASC_NODE,ARG_OF_PERICENTER,MEAN_ANOMALY,BSTAR,MEAN_MOTION_DOT,MEAN_MOTION_DDOT,TLE_LINE0,TLE_LINE1,TLE_LINE2,SEMIMAJOR_AXIS,PERIOD,APOGEE,PERIGEE,DECAYED
52124.0,STARLINK-3684,PAYLOAD,2022-10-29 22:45:53,15.0885006,0.0001844999999999,53.217,186.182,63.0806,297.0375,1.9914e-05,2.9e-07,0.0,0 STARLINK-3684,1 52124U 22029AN  22302.94853752  .00000029  00000-0  19914-4 0  9990,2 52124  53.2170 186.1820 0001845  63.0806 297.0375 15.08850060 35599,6917.85,95.437,540.991,538.438,0.0
52124.0,STARLINK-3684,PAYLOAD,2022-10-30 09:53:35,15.08844564,0.0001673,53.2177,184.1012,59.8951,300.2207,-2.7693e-05,-7.29e-06,0.0,0 STARLINK-3684,1 52124U 22029AN  22303.41221814 -.00000729  00000-0 -27693-4 0  9993,2 52124  53.2177 184.1012 0001673  59.8951 300.2207 15.08844564 35661,6917.866,95.437,540.889,538.5740000000002,0.0
52124.0,STARLINK-3684,PAYLOAD,2022-10-30 21:01:17,15.08841873,0.0001724,53.2187,182.0179,61.9582,298.1585,1.4485e-05,-5.8e-07,0.0,0 STARLINK-3684,1 52124U 22029AN  22303.87590089 -.00000058  00000-0  14485-4 0  9995,2 52124  53.2187 182.0179 0001724  61.9582 298.1585 15.08841873 35736,6917.875,95.437,540.932,538.547,0.0
52124.0,STARLINK-3684,PAYLOAD,2022-10-31 01:47:27,15.08845308,0.0001605,53.2186,181.1254,64.0036,296.1121,-3.5285e-06,-3.44e-06,0.0,0 STARLINK-3684,1 52124U 22029AN  22304.07461867 -.00000344  00000-0 -35285-5 0  9990,2 52124  53.2186 181.1254 0001605  64.0036 296.1121 15.08845308 35769,6917.864000000001,95.437,540.839,538.619,0.0
52124.0,STARLINK-3684,PAYLOAD,2022-10-31 19:16:42,15.08834252,0.0001433,53.2182,177.8538,63.057,297.0568,-3.7762e-05,-8.89e-06,0.0,0 STARLINK-3684,1 52124U 22029AN  22304.80326856 -.00000889  00000-0 -37762-4 0  9994,2 52124  53.2182 177.8538 0001433  63.0570 297.0568 15.08834252 35876,6917.898,95.438,540.754,538.7719999999998,0.0
52124.0,STARLINK-3684,PAYLOAD,2022-11-01 07:59:47,15.08833506,0.0001603,53.218,175.4752,63.145,296.9706,7.471600000000001e-05,9.01e-06,0.0,0 STARLINK-3684,1 52124U 22029AN  22305.33318925  .00000901  00000-0  74716-4 0  9994,2 52124  53.2180 175.4752 0001603  63.1450 296.9706 15.08833506 35955,6917.9,95.438,540.874,538.656,0.0
52124.0,STARLINK-3684,PAYLOAD,2022-11-02 01:29:02,15.08830488,0.000152,53.2182,172.2037,67.8266,292.2887,8.0436e-05,9.92e-06,0.0,0 STARLINK-3684,1 52124U 22029AN  22306.06183506  .00000992  00000-0  80436-4 0  9996,2 52124  53.2182 172.2037 0001520  67.8266 292.2887 15.08830488 36060,6917.909000000002,95.438,540.826,538.7230000000002,0.0
52124.0,STARLINK-3684,PAYLOAD,2022-11-02 07:50:34,15.08839652,0.0001578,53.2179,171.0147,62.7169,297.3983,7.5828e-05,9.19e-06,0.0,0 STARLINK-3684,1 52124U 22029AN  22306.32679019  .00000919  00000-0  75828-4 0  9992,2 52124  53.2179 171.0147 0001578  62.7169 297.3983 15.08839652 36104,6917.880999999999,95.438,540.8380000000002,538.655,0.0
52124.0,STARLINK-3684,PAYLOAD,2022-11-02 23:44:27,15.0882193,0.0001626,53.2177,168.0408,61.6401,298.4755,3.8182e-05,3.19e-06,0.0,0 STARLINK-3684,1 52124U 22029AN  22306.98920992  .00000319  00000-0  38182-4 0  9999,2 52124  53.2177 168.0408 0001626  61.6401 298.4755 15.08821930 36209,6917.936,95.439,540.925,538.6759999999998,0.0
52124.0,STARLINK-3684,PAYLOAD,2022-11-03 14:02:55,15.08832127,0.0001884,53.2189,165.3643,64.9056,295.2131,7.173100000000001e-05,8.53e-06,0.0,0 STARLINK-3684,1 52124U 22029AN  22307.58536889  .00000853  00000-0  71731-4 0  9994,2 52124  53.2189 165.3643 0001884  64.9056 295.2131 15.08832127 36293,6917.904,95.438,541.073,538.466,0.0
52124.0,STARLINK-3684,PAYLOAD,2022-11-03 15:38:18,15.08832963,0.0001723,53.2169,165.0672,62.6841,297.4327,0.00011178,1.491e-05,0.0,0 STARLINK-3684,1 52124U 22029AN  22307.65160744  .00001491  00000-0  11178-3 0  9992,2 52124  53.2169 165.0672 0001723  62.6841 297.4327 15.08832963 36300,6917.901999999999,95.438,540.9590000000002,538.575,0.0
52124.0,STARLINK-3684,PAYLOAD,2022-11-04 01:10:36,15.08847945,0.0001391,53.2161,163.283,64.3006,295.813,0.00026528,3.937e-05,0.0,0 STARLINK-3684,1 52124U 22029AN  22308.04903865  .00003937  00000-0  26528-3 0  9997,2 52124  53.2161 163.2830 0001391  64.3006 295.8130 15.08847945 36367,6917.856,95.437,540.683,538.759,0.0
52124.0,STARLINK-3684,PAYLOAD,2022-11-04 13:53:41,15.08855821,0.000167,53.2154,160.9066,66.2343,293.8824,0.00055173,8.507e-05,0.0,0 STARLINK-3684,1 52124U 22029AN  22308.57895775  .00008507  00000-0  55173-3 0  9991,2 52124  53.2154 160.9066 0001670  66.2343 293.8824 15.08855821 36448,6917.831999999999,95.437,540.852,538.5419999999998,0.0
52124.0,STARLINK-3684,PAYLOAD,2022-11-04 15:29:05,15.08855548,0.000154,53.2158,160.6093,65.1234,294.9918,0.0004792,7.35e-05,0.0,0 STARLINK-3684,1 52124U 22029AN  22308.64519704  .00007350  00000-0  47920-3 0  9990,2 52124  53.2158 160.6093 0001540  65.1234 294.9918 15.08855548 36455,6917.833000000001,95.437,540.763,538.633,0.0
52124.0,STARLINK-3684,PAYLOAD,2022-11-04 23:26:00,15.0885053,0.0001229,53.216,159.1199,64.3723,295.7396,0.00027439,4.083e-05,0.0,0 STARLINK-3684,1 52124U 22029AN  22308.97639707  .00004083  00000-0  27439-3 0  9995,2 52124  53.2160 159.1199 0001229  64.3723 295.7396 15.08850530 36507,6917.848000000001,95.437,540.563,538.863,0.0
52124.0,STARLINK-3684,PAYLOAD,2022-11-05 07:22:56,15.08846129,0.000104,53.2154,157.63299999999995,61.595,298.5147,5.9668e-05,6.62e-06,0.0,0 STARLINK-3684,1 52124U 22029AN  22309.30759611  .00000662  00000-0  59668-4 0  9999,2 52124  53.2154 157.6330 0001040  61.5950 298.5147 15.08846129 36551,6917.861999999999,95.437,540.446,539.007,0.0
52124.0,STARLINK-3684,PAYLOAD,2022-11-05 20:06:01,15.08845681,0.000159,53.2162,155.2552,62.0453,298.07,7.5646e-05,9.16e-06,0.0,0 STARLINK-3684,1 52124U 22029AN  22309.83751740  .00000916  00000-0  75646-4 0  9998,2 52124  53.2162 155.2552 0001590  62.0453 298.0700 15.08845681 36635,6917.863,95.437,540.828,538.628,0.0
52124.0,STARLINK-3684,PAYLOAD,2022-11-06 07:13:43,15.08838707,0.0001491,53.2163,153.1717,63.3976,296.7169,-0.00012495,-2.276e-05,0.0,0 STARLINK-3684,1 52124U 22029AN  22310.30120088 -.00002276  00000-0 -12495-3 0  9992,2 52124  53.2163 153.1717 0001491  63.3976 296.7169 15.08838707 36703,6917.884,95.438,540.781,538.7180000000002,0.0
52124.0,STARLINK-3684,PAYLOAD,2022-11-06 19:56:48,15.08844092,0.000162,53.2166,150.7916,70.3592,289.7575,8.426e-05,1.053e-05,0.0,0 STARLINK-3684,1 52124U 22029AN  22310.83111897  .00001053  00000-0  84260-4 0  9998,2 52124  53.2166 150.7916 0001620  70.3592 289.7575 15.08844092 36781,6917.868,95.437,540.854,538.612,0.0
52124.0,STARLINK-3684,PAYLOAD,2022-11-07 13:26:03,15.08835337,0.0001289,53.2174,147.5209,74.6326,285.4809,2.7426e-05,1.49e-06,0.0,0 STARLINK-3684,1 52124U 22029AN  22311.55976545  .00000149  00000-0  27426-4 0  9993,2 52124  53.2174 147.5209 0001289  74.6326 285.4809 15.08835337 36899,6917.895,95.438,540.651,538.868,0.0
52124.0,STARLINK-3684,PAYLOAD,2022-11-07 16:36:50,15.08835333,0.0001559,53.2183,146.9288,66.3909,293.7247,1.3448e-05,-7.4e-07,0.0,0 STARLINK-3684,1 52124U 22029AN  22311.69224622 -.00000074  00000-0  13448-4 0  9997,2 52124  53.2183 146.9288 0001559  66.3909 293.7247 15.08835333 36911,6917.895,95.438,540.8380000000002,538.681,0.0
52124.0,STARLINK-3684,PAYLOAD,2022-11-08 03:44:31,15.08840977,0.0001565999999999,53.2182,144.847,64.5982,295.5172,3.6145e-05,2.87e-06,0.0,0 STARLINK-3684,1 52124U 22029AN  22312.15592137  .00000287  00000-0  36145-4 0  9992,2 52124  53.2182 144.8470 0001566  64.5982 295.5172 15.08840977 36983,6917.877,95.437,540.826,538.659,0.0
52124.0,STARLINK-3684,PAYLOAD,2022-11-08 21:13:45,15.08848403,0.0001505,53.2181,141.5762,60.0468,300.0674,0.00013631,1.883e-05,0.0,0 STARLINK-3684,1 52124U 22029AN  22312.88455423  .00001883  00000-0  13631-3 0  9995,2 52124  53.2181 141.5762 0001505  60.0468 300.0674 15.08848403 37097,6917.855,95.437,540.761,538.679,0.0
52124.0,STARLINK-3684,PAYLOAD,2022-11-08 22:49:08,15.08849825,0.0001523,53.2178,141.2785,61.8241,298.2905,0.00015271,2.144e-05,0.0,0 STARLINK-3684,1 52124U 22029AN  22312.95079340  .00002144  00000-0  15271-3 0  9996,2 52124  53.2178 141.2785 0001523  61.8241 298.2905 15.08849825 37109,6917.85,95.437,540.769,538.6619999999998,0.0
52124.0,STARLINK-3684,PAYLOAD,2022-11-09 11:32:13,15.08843008,0.0001445,53.2175,138.8996,63.5416,296.5725,0.00013723,1.897e-05,0.0,0 STARLINK-3684,1 52124U 22029AN  22313.48071565  .00001897  00000-0  13723-3 0  9990,2 52124  53.2175 138.8996 0001445  63.5416 296.5725 15.08843008 37184,6917.871,95.437,540.736,538.737,0.0
52124.0,STARLINK-3684,PAYLOAD,2022-11-09 19:29:09,15.08852619,0.000178,53.2167,137.4126,64.4593,295.6583,-6.2814e-05,-1.288e-05,0.0,0 STARLINK-3684,1 52124U 22029AN  22313.81191017 -.00001288  00000-0 -62814-4 0  9994,2 52124  53.2167 137.4126 0001780  64.4593 295.6583 15.08852619 37239,6917.842,95.437,540.938,538.475,0.0
52124.0,STARLINK-3684,PAYLOAD,2022-11-09 21:04:32,15.088369,7.950000000000001e-05,53.2171,137.113,119.317,240.7902,3.9719e-05,3.44e-06,0.0,0 STARLINK-3684,1 52124U 22029AN  22313.87815812  .00000344  00000-0  39719-4 0  9994,2 52124  53.2171 137.1130 0000795 119.3170 240.7902 15.08836900 37244,6917.89,95.438,540.305,539.205,0.0
52124.0,STARLINK-3684,PAYLOAD,2022-11-10 17:44:34,15.08834927,0.0001606,53.2173,133.2499,58.4513,301.6636,-4.4644e-05,-9.98e-06,0.0,0 STARLINK-3684,1 52124U 22029AN  22314.73929137 -.00000998  00000-0 -44644-4 0  9996,2 52124  53.2173 133.2499 0001606  58.4513 301.6636 15.08834927 37379,6917.896,95.438,540.872,538.65,0.0
52124.0,STARLINK-3684,PAYLOAD,2022-11-10 19:19:57,15.08836393,0.0001605,53.2175,132.9524,60.4079,299.7073,-3.0927e-05,-7.8e-06,0.0,0 STARLINK-3684,1 52124U 22029AN  22314.80553034 -.00000780  00000-0 -30927-4 0  9991,2 52124  53.2175 132.9524 0001605  60.4079 299.7073 15.08836393 37387,6917.891,95.438,540.867,538.646,0.0
